DTUSAT                  
1 27842U 03031C   13053.63747958  .00000081  00000-0  57186-4 0  6178
2 27842  98.6923  64.6094 0009392 189.3893 287.3528 14.21400943500586
CUTE-1 (CO-55)          
1 27844U 03031E   13054.00697762  .00000113  00000-0  72118-4 0  5862
2 27844  98.7034  64.7359 0009350 212.6874 200.7688 14.21162590500512
QUAKESAT                
1 27845U 03031F   13054.04293728  .00000144  00000-0  86550-4 0  6333
2 27845  98.7128  64.7582 0008139 233.9155 159.7330 14.20925269500388
AAU CUBESAT             
1 27846U 03031G   13053.96749837  .00000130  00000-0  79597-4 0  5013
2 27846  98.6930  64.9200 0008766 190.0390 170.0615 14.21399054500636
CANX-1                  
1 27847U 03031H   13053.57716763 -.00000073  00000-0 -13307-4 0  4949
2 27847  98.6897  64.5053 0009372 190.0404 170.0610 14.21366493500525
CUBESAT XI-IV (CO-57)   
1 27848U 03031J   13054.05212346  .00000086  00000-0  60126-4 0  5339
2 27848  98.7118  64.2335 0009156 218.4990 174.8521 14.20895676500452
UWE-1                   
1 28892U 05043C   13053.64353987  .00000407  00000-0  91848-4 0  4550
2 28892  97.8798 273.1122 0018434  83.8832 309.2322 14.60946067390331
CUBESAT XI-V (CO-58)    
1 28895U 05043F   13054.12248876  .00000410  00000-0  92552-4 0  4116
2 28895  97.8849 274.9276 0018746  81.3267 279.0076 14.60971104390296
NCUBE-2                 
1 28897U 05043H   13054.12706258  .00000458  00000-0  10161-3 0  9876
2 28897  97.8829 274.8654 0018197  79.9822 280.3442 14.61230048382610
CSTB1                   
1 31122U 07012F   13054.01845039  .00000767  00000-0  17286-3 0  7470
2 31122  97.8642  62.9211 0084352  30.2908 330.3126 14.56823847311115
MAST                    
1 31126U 07012K   13054.55793161  .00000359  00000-0  89601-4 0  6906
2 31126  97.8768  56.9959 0094350  47.4659 313.4455 14.54439020310808
LIBERTAD-1              
1 31128U 07012M   13053.87731189 -.00000045  00000-0  00000+0 0  7594
2 31128  97.8906  52.5563 0102206  64.4821 296.6904 14.53219915310389
POLYSAT CP3             
1 31129U 07012N   13054.45760404  .00000520  00000-0  12679-3 0  3987
2 31129  97.8887  53.5647 0101482  61.6125 299.5247 14.53468086310470
CAPE1                   
1 31130U 07012P   13053.97054650  .00000651  00000-0  15653-3 0  7023
2 31130  97.8902  52.7632 0102013  63.9651 297.2036 14.53308797310197
POLYSAT CP4             
1 31132U 07012Q   13054.53954063  .00000369  00000-0  89175-4 0  7033
2 31132  97.8616  62.4530 0085085  29.3478 331.2464 14.56330671311035
NTS (CANX-6)            
1 32784U 08021B   13054.75217983  .00000591  00000-0  79286-4 0  5605
2 32784  97.7650 114.2141 0014219 320.6984 155.7416 14.82861417260967
CUTE-1.7+APD II (CO-65) 
1 32785U 08021C   13054.75192740  .00000719  00000-0  93494-4 0  5608
2 32785  97.7659 115.4632 0013143 322.5132 152.0506 14.83598160261050
COMPASS-1               
1 32787U 08021E   13054.29432192  .00001162  00000-0  14226-3 0  5515
2 32787  97.7665 115.7730 0013567 321.0055 104.4749 14.85008870261066
AAUSAT-II               
1 32788U 08021F   13054.75082284  .00001343  00000-0  16184-3 0  5426
2 32788  97.7671 116.7599 0013137 318.9252 160.1660 14.85425815261169
DELFI-C3 (DO-64)        
1 32789U 08021G   13054.75938284  .00001592  00000-0  18077-3 0  5662
2 32789  97.7817 119.9147 0012701 313.2350 194.7741 14.87649487261257
CANX-2                  
1 32790U 08021H   13054.74459330  .00000715  00000-0  93136-4 0  5535
2 32790  97.7630 115.0110 0013836 323.0425 184.8742 14.83489615261028
SEEDS II (CO-66)        
1 32791U 08021J   13054.75078313  .00000985  00000-0  12378-3 0  5385
2 32791  97.7669 115.7185 0014051 319.9953 188.2095 14.84241725261040
SWISSCUBE               
1 35932U 09051B   13054.18774637  .00000408  00000-0  10891-3 0  9616
2 35932  98.3493 162.0752 0008593  60.3436   4.6504 14.53387761181318
BEESAT                  
1 35933U 09051C   13054.28381745  .00007992  00000-0  19109-2 0  2441
2 35933  98.3456 162.7063 0004790  57.9781 302.1176 14.53846117181394
UWE-2                   
1 35934U 09051D   13053.95271919  .00000377  00000-0  10097-3 0  6033
2 35934  98.3400 161.8395 0007571  73.9636 286.2366 14.53692943181343
ITUPSAT 1               
1 35935U 09051E   13054.78362803  .00001975  00000-0  48744-3 0  1545
2 35935  98.3548 163.3831 0008697  58.4708 301.7158 14.53187035181384
TISAT 1                 
1 36799U 10035E   13054.84035346  .00000986  00000-0  12828-3 0  8344
2 36799  98.0399 138.8794 0015711  78.6377 281.6564 14.82874687141774
DICE-F                  
1 37851U 11061B   13054.56346420  .00001835  00000-0  15013-3 0  4340
2 37851 101.7196 215.7350 0241413 353.3869   6.4158 14.81892352 71595
DICE-Y                  
1 37852U 11061C   13054.19370297  .00002421  00000-0  19240-3 0  4325
2 37852 101.7187 215.5120 0239148 353.7252   6.0972 14.82588200 71552
RAX-2                   
1 37853U 11061D   13054.47533836  .00002317  00000-0  18541-3 0  4346
2 37853 101.7129 215.5344 0239455 352.9811   6.8044 14.82386327 71598
AUBIESAT-1              
1 37854U 11061E   13054.14542372  .00001871  00000-0  14969-3 0  4328
2 37854 101.7163 215.6943 0238950 352.9018   6.8811 14.82984743 71555
M-CUBED & EXP-1 PRIME   
1 37855U 11061F   13054.73354005  .00002382  00000-0  18842-3 0  4285
2 37855 101.7127 216.3879 0239569 351.6345   8.0895 14.82716855 71630
E-ST@R                  
1 38079U 12006C   13054.48368087  .00037636  32861-5  81412-3 0  9206
2 38079  69.4852  92.8577 0664445 285.9212  66.9683 14.34771459 53370
2012-006D               
1 38080U 12006D   13054.48397180  .00038693  00000-0  84137-3 0  8524
2 38080  69.4756  92.5886 0660579 286.2879  66.6599 14.35043924 53375
MASAT 1                 
1 38081U 12006E   13054.51923909  .00037942  32916-5  83418-3 0  8920
2 38081  69.4781  92.7790 0662545 286.2281  66.6964 14.34842931 53372
XATCOBEO                
1 38082U 12006F   13054.51519211  .00051393  35012-5  10753-2 0  9465
2 38082  69.4874  89.4086 0638564 283.8723  69.2220 14.40812413 53479
PW-SAT                  
1 38083U 12006G   13054.61083673  .00045249  33973-5  97569-3 0   521
2 38083  69.4856  90.7215 0648810 284.7870  68.2312 14.38075396 53443
2012-006H               
1 38084U 12006H   13054.54116102  .00040491  33108-5  87411-3 0  9346
2 38084  69.4849  93.6749 0668464 286.3626  66.5098 14.33920521 53350
2012-006J               
1 38085U 12006J   13054.48510656  .00035460  32517-5  77678-3 0  8539
2 38085  69.4871  94.2567 0670901 286.6649  66.1908 14.33172755 53330
RAIKO                   
1 38852U 98067CN  13054.53233612  .00040155  00000-0  45926-3 0  1507
2 38852  51.6476 307.8514 0012092 293.4050  66.5689 15.61659633 22034
FITSAT-1 (NIWAKA)       
1 38853U 98067CP  13054.11970059  .00051503  00000-0  53853-3 0  1478
2 38853  51.6491 308.8646 0008481 303.8246  56.1943 15.63894409 22031
TECHEDSAT               
1 38854U 98067CQ  13054.21877699  .00095905  00000-0  77546-3 0  1677
2 38854  51.6443 305.7442 0006296 299.9585  60.0794 15.70017567 22085
F-1                     
1 38855U 98067CR  13054.88139533  .00090607  00000-0  75278-3 0  1695
2 38855  51.6442 302.6668 0006575 302.0260  58.0082 15.69383699 22073
WE-WISH                 
1 38856U 98067CS  13054.89360444  .00443903  86229-4  13615-2 0  1973
2 38856  51.6353 295.9120 0008084 241.4650 118.5539 15.91254800 22163
